CREW DRAGON 12          
1 67796U 26031A   26065.54469341  .00009332  00000+0  18044-3 0  9998
2 67796  51.6317  87.9051 0008117 163.3368 196.7888 15.48477653555728
