[{"OBJECT_NAME":"CREW DRAGON 12","OBJECT_ID":"2026-031A","EPOCH":"2026-03-06T13:04:21.510624","MEAN_MOTION":15.48477653,"ECCENTRICITY":0.00081171,"INCLINATION":51.6317,"RA_OF_ASC_NODE":87.9051,"ARG_OF_PERICENTER":163.3368,"MEAN_ANOMALY":196.7888,"EPHEMERIS_TYPE":0,"CLASSIFICATION_TYPE":"U","NORAD_CAT_ID":67796,"ELEMENT_SET_NO":999,"REV_AT_EPOCH":55572,"BSTAR":0.00018044032,"MEAN_MOTION_DOT":9.332e-5,"MEAN_MOTION_DDOT":0}]
